[{"OBJECT_NAME":"STARLINK-3953","OBJECT_ID":"2022-051AC","EPOCH":"2026-03-09T11:08:50.519904","MEAN_MOTION":15.08832064,"ECCENTRICITY":0.00012011,"INCLINATION":53.2178,"RA_OF_ASC_NODE":120.3144,"ARG_OF_PERICENTER":83.1983,"MEAN_ANOMALY":276.9145,"EPHEMERIS_TYPE":0,"CLASSIFICATION_TYPE":"U","NORAD_CAT_ID":52559,"ELEMENT_SET_NO":999,"REV_AT_EPOCH":21154,"BSTAR":8.6279054e-5,"MEAN_MOTION_DOT":1.085e-5,"MEAN_MOTION_DDOT":0},{"OBJECT_NAME":"CZ-4C DEB","OBJECT_ID":"2010-038E","EPOCH":"2026-03-08T13:52:01.201152","MEAN_MOTION":14.99820212,"ECCENTRICITY":0.00772359,"INCLINATION":97.9453,"RA_OF_ASC_NODE":199.3713,"ARG_OF_PERICENTER":309.8702,"MEAN_ANOMALY":49.5744,"EPHEMERIS_TYPE":0,"CLASSIFICATION_TYPE":"U","NORAD_CAT_ID":37569,"ELEMENT_SET_NO":999,"REV_AT_EPOCH":82446,"BSTAR":0.0019249603,"MEAN_MOTION_DOT":0.00025376,"MEAN_MOTION_DDOT":0}]
